norad_id,name,regime,epoch,line1,line2,inclination,eccentricity,mean_motion,raan,arg_pericenter,mean_anomaly
20083,RADUGA 1-1,EGO,20013.07484972,1 20083U 89048A   20013.07484972 +.00000001 +00000-0 +00000-0 0 0001\,2 20083 014.9968 353.3362 0019142 079.1330 113.2900 00.9870738510810,14.9968,0.0019142,0.98707385,353.3362,79.133,113.29
20083,RADUGA 1-1,EGO,20014.07880639,1 20083U 89048A   20014.07880639 -.00000022  00000-0  00000+0 0  4247\,2 20083  14.9961 353.3268 0019137  79.1418 110.0474  0.98707815108108,14.9961,0.0019137,0.98707815,353.3268,79.1418,110.0474
20083,RADUGA 1-1,EGO,20014.58058838,1 20083U 89048A   20014.58058838 -.00000034 +00000-0 +00000-0 0 0001\,2 20083 014.9958 353.3221 0019129 079.1599 288.3435 00.9870804610812,14.9958,0.0019129,0.98708046,353.3221,79.1599,288.3435
20083,RADUGA 1-1,EGO,20015.08267637,1 20083U 89048A   20015.08267637 -.00000047 +00000-0 +00000-0 0 0001\,2 20083 014.9954 353.3174 0019130 079.1439 106.7827 00.9870827610812,14.9954,0.001913,0.98708276,353.3174,79.1439,106.7827
20083,RADUGA 1-1,EGO,20015.58454556,1 20083U 89048A   20015.58454556 -.00000061 +00000-0 +00000-0 0 0001\,2 20083 014.9951 353.3127 0019123 079.1562 285.1162 00.9870850310813,14.9951,0.0019123,0.98708503,353.3127,79.1562,285.1162
20083,RADUGA 1-1,EGO,20016.58842358,1 20083U 89048A   20016.58842358 -.00000089  00000-0  00000+0 0  4277\,2 20083  14.9944 353.3034 0019119  79.1353 281.8795  0.98708953108138,14.9944,0.0019119,0.98708953,353.3034,79.1353,281.8795
20083,RADUGA 1-1,EGO,20017.09037997,1 20083U 89048A   20017.09037997 -.00000103 +00000-0 +00000-0 0 0001\,2 20083 014.9940 353.2988 0019119 079.1059 100.2868 00.9870916610814,14.994,0.0019119,0.98709166,353.2988,79.1059,100.2868
20083,RADUGA 1-1,EGO,20018.09432764,1 20083U 89048A   20018.09432764 -.00000131 +00000-0 +00000-0 0 0001\,2 20083 014.9933 353.2895 0019114 079.0713 097.0900 00.9870955010815,14.9933,0.0019114,0.9870955,353.2895,79.0713,97.09
20083,RADUGA 1-1,EGO,20018.59619674,1 20083U 89048A   20018.59619674 -.00000145  00000-0  00000+0 0  4287\,2 20083  14.9930 353.2849 0019117  79.0602 275.4490  0.98709733108150,14.993,0.0019117,0.98709733,353.2849,79.0602,275.449
20083,RADUGA 1-1,EGO,20019.09815038,1 20083U 89048A   20019.09815038 -.00000158 +00000-0 +00000-0 0 0001\,2 20083 014.9926 353.2802 0019116 079.0268 093.8608 00.9870990110816,14.9926,0.0019116,0.98709901,353.2802,79.0268,93.8608
20083,RADUGA 1-1,EGO,20020.10206295,1 20083U 89048A   20020.10206295 -.00000182 +00000-0 +00000-0 0 0001\,2 20083 014.9919 353.2709 0019123 078.9756 090.6712 00.9871018910817,14.9919,0.0019123,0.98710189,353.2709,78.9756,90.6712
20083,RADUGA 1-1,EGO,20020.67547115,1 20083U 89048A   20020.67547115 -.00000194  00000-0  00000+0 0  4294\,2 20083  14.9915 353.2656 0019137  78.9475 294.4711  0.98710318108177,14.9915,0.0019137,0.98710318,353.2656,78.9475,294.4711
20083,RADUGA 1-1,EGO,20021.17749483,1 20083U 89048A   20021.17749483 -.00000204 +00000-0 +00000-0 0 0001\,2 20083 014.9911 353.2609 0019137 078.9181 112.9047 00.9871041310818,14.9911,0.0019137,0.98710413,353.2609,78.9181,112.9047
20083,RADUGA 1-1,EGO,20022.18138170,1 20083U 89048A   20022.18138170 -.00000220 +00000-0 +00000-0 0 0001\,2 20083 014.9903 353.2516 0019155 078.8649 109.7095 00.9871054410819,14.9903,0.0019155,0.98710544,353.2516,78.8649,109.7095
20083,RADUGA 1-1,EGO,20022.68325066,1 20083U 89048A   20022.68325066 -.00000227  00000-0  00000+0 0  4305\,2 20083  14.9900 353.2469 0019171  78.8559 288.0680  0.98710580108190,14.99,0.0019171,0.9871058,353.2469,78.8559,288.068
20083,RADUGA 1-1,EGO,20023.18525799,1 20083U 89048A   20023.18525799 -.00000232 +00000-0 +00000-0 0 0001\,2 20083 014.9897 353.2422 0019172 078.8284 106.4940 00.9871059010820,14.9897,0.0019172,0.9871059,353.2422,78.8284,106.494
20083,RADUGA 1-1,EGO,20024.18916042,1 20083U 89048A   20024.18916042 -.00000240 +00000-0 +00000-0 0 0001\,2 20083 014.9889 353.2329 0019195 078.7994 103.2801 00.9871055510821,14.9889,0.0019195,0.98710555,353.2329,78.7994,103.2801
20083,RADUGA 1-1,EGO,20024.69099657,1 20083U 89048A   20024.69099657 -.00000242  00000-0  00000+0 0  4310\,2 20083  14.9886 353.2283 0019216  78.7909 281.6261  0.98710505108219,14.9886,0.0019216,0.98710505,353.2283,78.7909,281.6261
20083,RADUGA 1-1,EGO,20025.34664289,1 20083U 89048A   20025.34664289 -.00000242 +00000-0 +00000-0 0 0001\,2 20083 014.9881 353.2222 0019227 078.7657 154.6483 00.9871041810822,14.9881,0.0019227,0.98710418,353.2222,78.7657,154.6483
20083,RADUGA 1-1,EGO,20026.19806486,1 20083U 89048A   20026.19806486 -.00000240 +00000-0 +00000-0 0 0001\,2 20083 014.9875 353.2143 0019252 078.7649 097.2180 00.9871025710823,14.9875,0.0019252,0.98710257,353.2143,78.7649,97.218
20083,RADUGA 1-1,EGO,20027.21090985,1 20083U 89048A   20027.21090985 -.00000233 +00000-0 +00000-0 0 0001\,2 20083 014.9868 353.2049 0019282 078.7692 097.1473 00.9871002310824,14.9868,0.0019282,0.98710023,353.2049,78.7692,97.1473
20083,RADUGA 1-1,EGO,20028.27618771,1 20083U 89048A   20028.27618771 -.00000221 +00000-0 +00000-0 0 0001\,2 20083 014.9860 353.1951 0019318 078.7757 115.7061 00.9870972010825,14.986,0.0019318,0.9870972,353.1951,78.7757,115.7061
20083,RADUGA 1-1,EGO,20028.77805556,1 20083U 89048A   20028.77805556 -.00000213 +00000-0 +00000-0 0 0001\,2 20083 014.9856 353.1905 0019336 078.7811 294.0476 00.9870955410826,14.9856,0.0019336,0.98709554,353.1905,78.7811,294.0476
20083,RADUGA 1-1,EGO,20029.24355007,1 20083U 89048A   20029.24355007 -.00000206  00000-0  00000+0 0  4332\,2 20083  14.9853 353.1862 0019351  78.7950  99.4548  0.98709405108255,14.9853,0.0019351,0.98709405,353.1862,78.795,99.4548
20083,RADUGA 1-1,EGO,20030.41487986,1 20083U 89048A   20030.41487986 -.00000184 +00000-0 +00000-0 0 0001\,2 20083 014.9845 353.1753 0019389 078.8298 155.6698 00.9870899710827,14.9845,0.0019389,0.98708997,353.1753,78.8298,155.6698
20083,RADUGA 1-1,EGO,20031.34727767,1 20083U 89048A   20031.34727767 -.00000164  00000-0  00000+0 0  4346\,2 20083  14.9838 353.1667 0019414  78.8877 126.9518  0.98708652108278,14.9838,0.0019414,0.98708652,353.1667,78.8877,126.9518
20083,RADUGA 1-1,EGO,20032.25161847,1 20083U 89048A   20032.25161847 -.00000143 +00000-0 +00000-0 0 0001\,2 20083 014.9831 353.1583 0019434 078.9332 088.2754 00.9870833610829,14.9831,0.0019434,0.98708336,353.1583,78.9332,88.2754
20083,RADUGA 1-1,EGO,20033.40093799,1 20083U 89048A   20033.40093799 -.00000115  00000-0  00000+0 0  4353\,2 20083  14.9823 353.1477 0019463  79.0046 136.6284  0.98707955108291,14.9823,0.0019463,0.98707955,353.1477,79.0046,136.6284
20083,RADUGA 1-1,EGO,20034.09670782,1 20083U 89048A   20034.09670782 -.00000099 +00000-0 +00000-0 0 0001\,2 20083 014.9818 353.1412 0019476 079.0306 023.8515 00.9870773410831,14.9818,0.0019476,0.98707734,353.1412,79.0306,23.8515
20083,RADUGA 1-1,EGO,20035.29216163,1 20083U 89048A   20035.29216163 -.00000071 +00000-0 +00000-0 0 0001\,2 20083 014.9810 353.1301 0019501 079.1262 088.5720 00.9870739710832,14.981,0.0019501,0.98707397,353.1301,79.1262,88.572
20083,RADUGA 1-1,EGO,20036.30733786,1 20083U 89048A   20036.30733786 -.00000049  00000-0  00000+0 0  4369\,2 20083  14.9803 353.1206 0019514  79.1959  89.2538  0.98707153108329,14.9803,0.0019514,0.98707153,353.1206,79.1959,89.2538
20083,RADUGA 1-1,EGO,20037.57525455,1 20083U 89048A   20037.57525455 -.00000024 +00000-0 +00000-0 0 0001\,2 20083 014.9795 353.1088 0019530 079.2774 179.7362 00.9870691710834,14.9795,0.001953,0.98706917,353.1088,79.2774,179.7362
20083,RADUGA 1-1,EGO,20037.88456550,1 20083U 89048A   20037.88456550 -.00000019 +00000-0 +00000-0 0 0001\,2 20083 014.9792 353.1059 0019527 079.2765 289.6532 00.9870687510835,14.9792,0.0019527,0.98706875,353.1059,79.2765,289.6532
20083,RADUGA 1-1,EGO,20038.38660862,1 20083U 89048A   20038.38660862 -.00000012  00000-0  00000+0 0  4374\,2 20083  14.9789 353.1012 0019544  79.2996 108.0350  0.98706826108342,14.9789,0.0019544,0.98706826,353.1012,79.2996,108.035
20083,RADUGA 1-1,EGO,20039.39052191,1 20083U 89048A   20039.39052191 +.00000001 +00000-0 +00000-0 0 0001\,2 20083 014.9782 353.0918 0019546 079.3499 104.7328 00.9870676410836,14.9782,0.0019546,0.98706764,353.0918,79.3499,104.7328
20083,RADUGA 1-1,EGO,20040.40599517,1 20083U 89048A   20040.40599517  .00000009  00000-0  00000+0 0  4384\,2 20083  14.9775 353.0823 0019543  79.3949 105.5431  0.98706754108368,14.9775,0.0019543,0.98706754,353.0823,79.3949,105.5431
20083,RADUGA 1-1,EGO,20041.39825927,1 20083U 89048A   20041.39825927 +.00000014 +00000-0 +00000-0 0 0001\,2 20083 014.9769 353.0728 0019545 079.3986 098.1481 00.9870682610838,14.9769,0.0019545,0.98706826,353.0728,79.3986,98.1481
20083,RADUGA 1-1,EGO,20042.40217101,1 20083U 89048A   20042.40217101 +.00000013 +00000-0 +00000-0 0 0001\,2 20083 014.9762 353.0634 0019544 079.4175 094.8771 00.9870695910839,14.9762,0.0019544,0.98706959,353.0634,79.4175,94.8771
20083,RADUGA 1-1,EGO,20042.63888525,1 20083U 89048A   20042.63888525  .00000013  00000-0  00000+0 0  4397\,2 20083  14.9760 353.0612 0019546  79.4235 178.9893  0.98706996108386,14.976,0.0019546,0.98706996,353.0612,79.4235,178.9893
20083,RADUGA 1-1,EGO,20044.54340325,1 20083U 89048A   20044.54340325 -.00000002 +00000-0 +00000-0 0 0001\,2 20083 014.9747 353.0435 0019555 079.3894 135.8112 00.9870745310841,14.9747,0.0019555,0.98707453,353.0435,79.3894,135.8112
20083,RADUGA 1-1,EGO,20045.43524670,1 20083U 89048A   20045.43524670 -.00000014  00000-0  00000+0 0  4400\,2 20083  14.9741 353.0352 0019557  79.3695  92.7567  0.98707732108411,14.9741,0.0019557,0.98707732,353.0352,79.3695,92.7567
20083,RADUGA 1-1,EGO,20046.45423454,1 20083U 89048A   20046.45423454 -.00000032 +00000-0 +00000-0 0 0001\,2 20083 014.9734 353.0257 0019562 079.3434 094.8915 00.9870808410843,14.9734,0.0019562,0.98708084,353.0257,79.3434,94.8915
20083,RADUGA 1-1,EGO,20047.50604855,1 20083U 89048A   20047.50604855 -.00000054  00000-0  00000+0 0  4419\,2 20083  14.9727 353.0160 0019574  79.3119 108.6977  0.98708475108431,14.9727,0.0019574,0.98708475,353.016,79.3119,108.6977
